{
  "norad_id": 43662,
  "name": "CFOSAT",
  "history": [
    {
      "epoch": "2026-03-28T23:38:42.415296",
      "apogee_km": 518.1695552943584,
      "perigee_km": 515.6576883528278,
      "latitude_deg": 27.15980192286333,
      "longitude_deg": 80.78046144009568,
      "semi_major_axis_km": 6895.050621823592,
      "eccentricity": 0.00018215,
      "inclination_deg": 97.3633,
      "raan_deg": 94.8692,
      "arg_perigee_deg": 108.5768,
      "mean_anomaly_deg": 251.5663,
      "mean_motion_rev_day": 15.16339937
    },
    {
      "epoch": "2026-03-29T04:23:47.108832",
      "apogee_km": 518.1687778067289,
      "perigee_km": 515.6465704649299,
      "latitude_deg": -25.06132739925424,
      "longitude_deg": 99.78567647980526,
      "semi_major_axis_km": 6895.044674135829,
      "eccentricity": 0.0001829,
      "inclination_deg": 97.3632,
      "raan_deg": 95.0614,
      "arg_perigee_deg": 108.8051,
      "mean_anomaly_deg": 251.3381,
      "mean_motion_rev_day": 15.16341899
    }
  ]
}